[{"OBJECT_NAME":"SL-8 R/B","OBJECT_ID":"1991-006B","EPOCH":"2026-04-03T14:54:04.437216","MEAN_MOTION":13.77498548,"ECCENTRICITY":0.0021494,"INCLINATION":82.9436,"RA_OF_ASC_NODE":151.5097,"ARG_OF_PERICENTER":328.4829,"MEAN_ANOMALY":140.1511,"EPHEMERIS_TYPE":0,"CLASSIFICATION_TYPE":"U","NORAD_CAT_ID":21088,"ELEMENT_SET_NO":999,"REV_AT_EPOCH":76750,"BSTAR":0.00013137,"MEAN_MOTION_DOT":1.46e-6,"MEAN_MOTION_DDOT":0},{"OBJECT_NAME":"OKEAN-3","OBJECT_ID":"1991-039A","EPOCH":"2026-04-03T14:43:34.001472","MEAN_MOTION":15.04959688,"ECCENTRICITY":0.001275,"INCLINATION":82.5148,"RA_OF_ASC_NODE":312.6924,"ARG_OF_PERICENTER":244.7891,"MEAN_ANOMALY":115.2014,"EPHEMERIS_TYPE":0,"CLASSIFICATION_TYPE":"U","NORAD_CAT_ID":21397,"ELEMENT_SET_NO":999,"REV_AT_EPOCH":86878,"BSTAR":0.00038164,"MEAN_MOTION_DOT":5.444e-5,"MEAN_MOTION_DDOT":0},{"OBJECT_NAME":"COSMOS 2151","OBJECT_ID":"1991-042A","EPOCH":"2026-04-03T21:30:52.927488","MEAN_MOTION":15.0022338,"ECCENTRICITY":0.0011775,"INCLINATION":82.4959,"RA_OF_ASC_NODE":59.3537,"ARG_OF_PERICENTER":343.1998,"MEAN_ANOMALY":16.8834,"EPHEMERIS_TYPE":0,"CLASSIFICATION_TYPE":"U","NORAD_CAT_ID":21422,"ELEMENT_SET_NO":999,"REV_AT_EPOCH":86697,"BSTAR":0.00031606,"MEAN_MOTION_DOT":3.983e-5,"MEAN_MOTION_DDOT":0},{"OBJECT_NAME":"SL-14 R/B","OBJECT_ID":"1991-042B","EPOCH":"2026-04-03T19:25:51.123936","MEAN_MOTION":14.81857049,"ECCENTRICITY":0.001771,"INCLINATION":82.496,"RA_OF_ASC_NODE":196.6329,"ARG_OF_PERICENTER":154.2579,"MEAN_ANOMALY":205.952,"EPHEMERIS_TYPE":0,"CLASSIFICATION_TYPE":"U","NORAD_CAT_ID":21423,"ELEMENT_SET_NO":999,"REV_AT_EPOCH":85679,"BSTAR":9.1687e-5,"MEAN_MOTION_DOT":7.5e-6,"MEAN_MOTION_DDOT":0},{"OBJECT_NAME":"ERS-1","OBJECT_ID":"1991-050A","EPOCH":"2026-04-03T15:38:20.670432","MEAN_MOTION":14.39470022,"ECCENTRICITY":0.0032908,"INCLINATION":98.7859,"RA_OF_ASC_NODE":112.5119,"ARG_OF_PERICENTER":127.1573,"MEAN_ANOMALY":233.2627,"EPHEMERIS_TYPE":0,"CLASSIFICATION_TYPE":"U","NORAD_CAT_ID":21574,"ELEMENT_SET_NO":999,"REV_AT_EPOCH":81932,"BSTAR":0.00019174,"MEAN_MOTION_DOT":5.55e-6,"MEAN_MOTION_DDOT":0},{"OBJECT_NAME":"ARIANE 40 R/B","OBJECT_ID":"1991-050F","EPOCH":"2026-04-03T17:06:03.969216","MEAN_MOTION":14.42913314,"ECCENTRICITY":0.00032,"INCLINATION":98.196,"RA_OF_ASC_NODE":145.0035,"ARG_OF_PERICENTER":23.1439,"MEAN_ANOMALY":336.9896,"EPHEMERIS_TYPE":0,"CLASSIFICATION_TYPE":"U","NORAD_CAT_ID":21610,"ELEMENT_SET_NO":999,"REV_AT_EPOCH":82260,"BSTAR":0.00017009,"MEAN_MOTION_DOT":5.27e-6,"MEAN_MOTION_DDOT":0},{"OBJECT_NAME":"INTERCOSMOS 25","OBJECT_ID":"1991-086A","EPOCH":"2026-04-03T14:04:19.267104","MEAN_MOTION":12.12089685,"ECCENTRICITY":0.1486351,"INCLINATION":82.5999,"RA_OF_ASC_NODE":294.9553,"ARG_OF_PERICENTER":63.292,"MEAN_ANOMALY":311.2478,"EPHEMERIS_TYPE":0,"CLASSIFICATION_TYPE":"U","NORAD_CAT_ID":21819,"ELEMENT_SET_NO":999,"REV_AT_EPOCH":49970,"BSTAR":0.00051833,"MEAN_MOTION_DOT":2.673e-5,"MEAN_MOTION_DDOT":0},{"OBJECT_NAME":"SL-8 R/B","OBJECT_ID":"1992-008B","EPOCH":"2026-04-03T21:24:16.202016","MEAN_MOTION":13.75969847,"ECCENTRICITY":0.0035802,"INCLINATION":82.9242,"RA_OF_ASC_NODE":249.026,"ARG_OF_PERICENTER":65.3935,"MEAN_ANOMALY":45.0244,"EPHEMERIS_TYPE":0,"CLASSIFICATION_TYPE":"U","NORAD_CAT_ID":21876,"ELEMENT_SET_NO":999,"REV_AT_EPOCH":71288,"BSTAR":6.1813e-6,"MEAN_MOTION_DOT":2.2e-7,"MEAN_MOTION_DDOT":0},{"OBJECT_NAME":"SL-8 R/B","OBJECT_ID":"1992-020B","EPOCH":"2026-04-03T15:41:13.467840","MEAN_MOTION":13.75550673,"ECCENTRICITY":0.0028011,"INCLINATION":82.9292,"RA_OF_ASC_NODE":135.225,"ARG_OF_PERICENTER":225.9685,"MEAN_ANOMALY":253.8677,"EPHEMERIS_TYPE":0,"CLASSIFICATION_TYPE":"U","NORAD_CAT_ID":21938,"ELEMENT_SET_NO":999,"REV_AT_EPOCH":70456,"BSTAR":1.4377e-5,"MEAN_MOTION_DOT":2.9e-7,"MEAN_MOTION_DDOT":0},{"OBJECT_NAME":"USA 81","OBJECT_ID":"1992-023A","EPOCH":"2026-04-03T14:21:02.128320","MEAN_MOTION":14.32376553,"ECCENTRICITY":0.0001546,"INCLINATION":85.004,"RA_OF_ASC_NODE":117.0652,"ARG_OF_PERICENTER":69.6675,"MEAN_ANOMALY":290.4683,"EPHEMERIS_TYPE":0,"CLASSIFICATION_TYPE":"U","NORAD_CAT_ID":21949,"ELEMENT_SET_NO":999,"REV_AT_EPOCH":9835,"BSTAR":8.5021e-5,"MEAN_MOTION_DOT":2.5e-6,"MEAN_MOTION_DDOT":0},{"OBJECT_NAME":"COSMOS 2219","OBJECT_ID":"1992-076A","EPOCH":"2026-04-03T18:35:15.707904","MEAN_MOTION":14.14089016,"ECCENTRICITY":0.0017687,"INCLINATION":71.0608,"RA_OF_ASC_NODE":325.6339,"ARG_OF_PERICENTER":169.1114,"MEAN_ANOMALY":191.0395,"EPHEMERIS_TYPE":0,"CLASSIFICATION_TYPE":"U","NORAD_CAT_ID":22219,"ELEMENT_SET_NO":999,"REV_AT_EPOCH":72192,"BSTAR":-5.8939e-5,"MEAN_MOTION_DOT":-1.59e-6,"MEAN_MOTION_DDOT":0},{"OBJECT_NAME":"SL-16 R/B","OBJECT_ID":"1992-076B","EPOCH":"2026-04-03T13:37:00.255648","MEAN_MOTION":14.16862791,"ECCENTRICITY":0.00108935,"INCLINATION":70.9986,"RA_OF_ASC_NODE":135.9727,"ARG_OF_PERICENTER":50.5206,"MEAN_ANOMALY":111.1924,"EPHEMERIS_TYPE":0,"CLASSIFICATION_TYPE":"U","NORAD_CAT_ID":22220,"ELEMENT_SET_NO":999,"REV_AT_EPOCH":72535,"BSTAR":-4.4167951e-5,"MEAN_MOTION_DOT":-1.36e-6,"MEAN_MOTION_DDOT":0},{"OBJECT_NAME":"COSMOS 2221","OBJECT_ID":"1992-080A","EPOCH":"2026-04-03T20:23:10.099680","MEAN_MOTION":14.96318186,"ECCENTRICITY":0.0015692,"INCLINATION":82.5014,"RA_OF_ASC_NODE":254.9727,"ARG_OF_PERICENTER":106.874,"MEAN_ANOMALY":253.4204,"EPHEMERIS_TYPE":0,"CLASSIFICATION_TYPE":"U","NORAD_CAT_ID":22236,"ELEMENT_SET_NO":999,"REV_AT_EPOCH":78455,"BSTAR":0.00037212,"MEAN_MOTION_DOT":4.242e-5,"MEAN_MOTION_DDOT":0},{"OBJECT_NAME":"SL-16 R/B","OBJECT_ID":"1992-093B","EPOCH":"2026-04-03T18:09:37.409472","MEAN_MOTION":14.15456222,"ECCENTRICITY":0.0006643,"INCLINATION":71.0221,"RA_OF_ASC_NODE":311.6459,"ARG_OF_PERICENTER":269.6902,"MEAN_ANOMALY":90.346,"EPHEMERIS_TYPE":0,"CLASSIFICATION_TYPE":"U","NORAD_CAT_ID":22285,"ELEMENT_SET_NO":999,"REV_AT_EPOCH":71670,"BSTAR":5.8585e-6,"MEAN_MOTION_DOT":-3.6e-7,"MEAN_MOTION_DDOT":0},{"OBJECT_NAME":"COSMOS 2228","OBJECT_ID":"1992-094A","EPOCH":"2026-04-03T18:46:13.623168","MEAN_MOTION":14.97331669,"ECCENTRICITY":0.0017201,"INCLINATION":82.52,"RA_OF_ASC_NODE":213.2857,"ARG_OF_PERICENTER":213.4615,"MEAN_ANOMALY":146.5522,"EPHEMERIS_TYPE":0,"CLASSIFICATION_TYPE":"U","NORAD_CAT_ID":22286,"ELEMENT_SET_NO":999,"REV_AT_EPOCH":77981,"BSTAR":0.00037009,"MEAN_MOTION_DOT":4.332e-5,"MEAN_MOTION_DDOT":0},{"OBJECT_NAME":"SL-16 R/B","OBJECT_ID":"1993-016B","EPOCH":"2026-04-03T14:06:08.806752","MEAN_MOTION":14.1530808,"ECCENTRICITY":0.0012375,"INCLINATION":71.0073,"RA_OF_ASC_NODE":162.8921,"ARG_OF_PERICENTER":282.2412,"MEAN_ANOMALY":77.7325,"EPHEMERIS_TYPE":0,"CLASSIFICATION_TYPE":"U","NORAD_CAT_ID":22566,"ELEMENT_SET_NO":999,"REV_AT_EPOCH":70569,"BSTAR":0.00019729,"MEAN_MOTION_DOT":3.37e-6,"MEAN_MOTION_DDOT":0},{"OBJECT_NAME":"COSMOS 2242","OBJECT_ID":"1993-024A","EPOCH":"2026-04-03T18:36:17.502048","MEAN_MOTION":14.96669797,"ECCENTRICITY":0.0015496,"INCLINATION":82.5174,"RA_OF_ASC_NODE":242.7152,"ARG_OF_PERICENTER":217.147,"MEAN_ANOMALY":142.8681,"EPHEMERIS_TYPE":0,"CLASSIFICATION_TYPE":"U","NORAD_CAT_ID":22626,"ELEMENT_SET_NO":999,"REV_AT_EPOCH":78414,"BSTAR":0.00034637,"MEAN_MOTION_DOT":3.985e-5,"MEAN_MOTION_DDOT":0}]
